{
  "norad_id": 58543,
  "name": "STARLINK-31049",
  "history": [
    {
      "epoch": "2026-03-28T21:31:34.686336Z",
      "apogee_km": 476.0917534862947,
      "perigee_km": 474.3496299610579,
      "latitude_deg": -1.0929526597665454e-05,
      "longitude_deg": -175.50812426738617,
      "height_km": 476.1709682783232,
      "semi_major_axis_km": 6853.357691723676,
      "eccentricity": 0.0001271,
      "inclination_deg": 53.1613,
      "raan_deg": 333.6972,
      "arg_perigee_deg": 93.4264,
      "mean_anomaly_deg": 266.6882,
      "mean_motion_rev_day": 15.30198117
    }
  ]
}